NORAD_CAT_ID,OBJECT_NAME,OBJECT_TYPE,EPOCH,MEAN_MOTION,ECCENTRICITY,INCLINATION,RA_OF_ASC_NODE,ARG_OF_PERICENTER,MEAN_ANOMALY,BSTAR,MEAN_MOTION_DOT,MEAN_MOTION_DDOT,TLE_LINE0,TLE_LINE1,TLE_LINE2,SEMIMAJOR_AXIS,PERIOD,APOGEE,PERIGEE,DECAYED
53150.0,STARLINK-4038,PAYLOAD,2023-02-24 19:41:28,15.08828201,0.0001278,53.2181,102.0223,119.1172,240.9948,-0.00021269,-3.67e-05,0.0,0 STARLINK-4038,1 53150U 22083U   23055.82046579 -.00003670  00000-0 -21269-3 0  9996,2 53150  53.2181 102.0223 0001278 119.1172 240.9948 15.08828201 34587,6917.916,95.438,540.666,538.897,0.0
53150.0,STARLINK-4038,PAYLOAD,2023-02-25 13:10:43,15.08841344,0.0001227,53.2179,98.7506,103.3528,256.7601,0.00075939,0.00011819,0.0,0 STARLINK-4038,1 53150U 22083U   23056.54911145  .00011819  00000-0  75939-3 0  9991,2 53150  53.2179  98.7506 0001227 103.3528 256.7601 15.08841344 34060,6917.876,95.437,540.59,538.892,0.0
53150.0,STARLINK-4038,PAYLOAD,2023-02-25 19:32:16,15.0883772,0.0001265,53.2177,97.5614,97.7559,262.3577,0.0007828,0.00012191,0.0,0 STARLINK-4038,1 53150U 22083U   23056.81407437  .00012191  00000-0  78280-3 0  9991,2 53150  53.2177  97.5614 0001265  97.7559 262.3577 15.08837720 34100,6917.887,95.438,540.627,538.877,0.0
53150.0,STARLINK-4038,PAYLOAD,2023-02-26 11:26:06,15.08866528,0.0001476,53.2189,94.5856,91.0312,269.0849,0.0012187,0.00019175,0.0,0 STARLINK-4038,1 53150U 22083U   23057.47646873  .00019175  00000-0  12187-2 0  9995,2 53150  53.2189  94.5856 0001476  91.0312 269.0849 15.08866528 34201,6917.799,95.436,540.685,538.643,0.0
53150.0,STARLINK-4038,PAYLOAD,2023-02-26 19:23:03,15.08842488,0.0002409,53.2188,93.0995,82.3744,277.7522,0.00016979,2.415e-05,0.0,0 STARLINK-4038,1 53150U 22083U   23057.80767476  .00002415  00000-0  16979-3 0  9998,2 53150  53.2188  93.0995 0002409  82.3744 277.7522 15.08842488 34884,6917.873,95.437,541.404,538.071,0.0
53150.0,STARLINK-4038,PAYLOAD,2023-02-27 11:16:54,15.08847788,0.0001674,53.2179,90.1274,83.2295,276.8888,0.00069409,0.00010778,0.0,0 STARLINK-4038,1 53150U 22083U   23058.47007339  .00010778  00000-0  69409-3 0  9994,2 53150  53.2179  90.1274 0001674  83.2295 276.8888 15.08847788 34351,6917.857,95.437,540.88,538.564,0.0
53150.0,STARLINK-4038,PAYLOAD,2023-02-27 14:27:40,15.08880695,0.0001722,53.2182,89.5322,83.7767,276.3421,0.0023742,0.00037742,0.0,0 STARLINK-4038,1 53150U 22083U   23058.60255089  .00037742  00000-0  23742-2 0  9995,2 53150  53.2182  89.5322 0001722  83.7767 276.3421 15.08880695 35009,6917.756,95.435,540.812,538.43,0.0
53150.0,STARLINK-4038,PAYLOAD,2023-02-27 19:13:50,15.08854209,0.0001815,53.2189,88.6394,81.6919,278.4279,0.0011189,0.00017571,0.0,0 STARLINK-4038,1 53150U 22083U   23058.80127332  .00017571  00000-0  11189-2 0  9996,2 53150  53.2189  88.6394 0001815  81.6919 278.4279 15.08854209 34403,6917.837,95.437,540.958,538.446,0.0
53150.0,STARLINK-4038,PAYLOAD,2023-02-28 01:35:22,15.08865487,0.000169,53.2177,87.4498,82.6612,277.4573,0.0014308,0.00022572,0.0,0 STARLINK-4038,1 53150U 22083U   23059.06622989  .00022572  00000-0  14308-2 0  9996,2 53150  53.2177  87.4498 0001690  82.6612 277.4573 15.08865487 35074,6917.802,95.436,540.837,538.498,0.0
53150.0,STARLINK-4038,PAYLOAD,2023-02-28 09:32:17,15.08887924,0.0001721,53.2176,85.965,78.2308,281.8877,0.0015109,0.00023871,0.0,0 STARLINK-4038,1 53150U 22083U   23059.39741970  .00023871  00000-0  15109-2 0  9997,2 53150  53.2176  85.9650 0001721  78.2308 281.8877 15.08887924 34495,6917.734,95.435,540.789,538.408,0.0
53150.0,STARLINK-4038,PAYLOAD,2023-02-28 19:04:35,15.08854839,0.0001572,53.2188,84.1804,84.8784,275.2387,0.00013322,1.834e-05,0.0,0 STARLINK-4038,1 53150U 22083U   23059.79486006  .00001834  00000-0  13322-3 0  9998,2 53150  53.2188  84.1804 0001572  84.8784 275.2387 15.08854839 34554,6917.835,95.437,540.788,538.613,0.0
53150.0,STARLINK-4038,PAYLOAD,2023-03-01 01:26:08,15.08824649,0.0001474,53.2185,82.9909,90.374,269.7421,-0.00098014,-0.00015846,0.0,0 STARLINK-4038,1 53150U 22083U   23060.05982460 -.00015846  00000-0 -98014-3 0  9995,2 53150  53.2185  82.9909 0001474  90.3740 269.7421 15.08824649 35226,6917.927,95.439,540.812,538.773,0.0
53150.0,STARLINK-4038,PAYLOAD,2023-03-01 18:55:24,15.08842063,9.58e-05,53.2183,79.7216,91.731,268.3792,0.0013089,0.00020606,0.0,0 STARLINK-4038,1 53150U 22083U   23060.78847232  .00020606  00000-0  13089-2 0  9998,2 53150  53.2183  79.7216 0000958  91.7310 268.3792 15.08842063 35331,6917.874,95.437,540.402,539.076,0.0
53150.0,STARLINK-4038,PAYLOAD,2023-03-02 12:24:39,15.08835814,0.0001352,53.2176,76.4514,83.4429,276.6717,0.00046478,7.116e-05,0.0,0 STARLINK-4038,1 53150U 22083U   23061.51711893  .00007116  00000-0  46478-3 0  9993,2 53150  53.2176  76.4514 0001352  83.4429 276.6717 15.08835814 35443,6917.893,95.438,540.693,538.823,0.0
53150.0,STARLINK-4038,PAYLOAD,2023-03-03 07:29:18,15.08826175,0.0001527,53.2192,72.8844,86.4138,273.7029,0.00018963,2.73e-05,0.0,0 STARLINK-4038,1 53150U 22083U   23062.31201397  .00002730  00000-0  18963-3 0  9990,2 53150  53.2192  72.8844 0001527  86.4138 273.7029 15.08826175 35568,6917.923,95.438,540.844,538.731,0.0
53150.0,STARLINK-4038,PAYLOAD,2023-03-03 17:01:36,15.08841905,0.0001757,53.2195,71.0987,108.9436,251.1747,0.00070855,0.00011007,0.0,0 STARLINK-4038,1 53150U 22083U   23062.70945234  .00011007  00000-0  70855-3 0  9993,2 53150  53.2195  71.0987 0001757 108.9436 251.1747 15.08841905 35628,6917.875,95.437,540.955,538.524,0.0
53150.0,STARLINK-4038,PAYLOAD,2023-03-04 02:33:54,15.08876665,0.0001273,53.2183,69.3132,95.304,264.8098,0.0017443,0.0002761,0.0,0 STARLINK-4038,1 53150U 22083U   23063.10688493  .00027610  00000-0  17443-2 0  9999,2 53150  53.2183  69.3132 0001273  95.3040 264.8098 15.08876665 35687,6917.768,95.435,540.514,538.753,0.0
53150.0,STARLINK-4038,PAYLOAD,2023-03-04 10:30:49,15.08913099,0.0001356,53.2186,67.8273,87.8454,272.2694,0.002376,0.00037805,0.0,0 STARLINK-4038,1 53150U 22083U   23063.43807111  .00037805  00000-0  23760-2 0  9991,2 53150  53.2186  67.8273 0001356  87.8454 272.2694 15.08913099 35730,6917.657,95.433,540.46,538.584,0.0
53150.0,STARLINK-4038,PAYLOAD,2023-03-04 12:06:12,15.08915352,0.0001383,53.2186,67.5296,90.0031,270.112,0.0021531,0.00034216,0.0,0 STARLINK-4038,1 53150U 22083U   23063.50430788  .00034216  00000-0  21531-2 0  9998,2 53150  53.2186  67.5296 0001383  90.0031 270.1120 15.08915352 35116,6917.65,95.433,540.472,538.558,0.0
53150.0,STARLINK-4038,PAYLOAD,2023-03-04 16:52:21,15.08856176,0.0001162,53.2191,66.6389,194.1774,165.9186,-0.0010643,-0.00017193,0.0,0 STARLINK-4038,1 53150U 22083U   23063.70302747 -.00017193  00000-0 -10643-2 0  9992,2 53150  53.2191  66.6389 0001162 194.1774 165.9186 15.08856176 35773,6917.831,95.437,540.5,538.892,0.0
53150.0,STARLINK-4038,PAYLOAD,2023-03-05 05:35:27,15.08849506,0.0001322,53.2182,64.2586,103.5904,256.5236,0.0014905,0.00023519,0.0,0 STARLINK-4038,1 53150U 22083U   23064.23295494  .00023519  00000-0  14905-2 0  9993,2 53150  53.2182  64.2586 0001322 103.5904 256.5236 15.08849506 35854,6917.851,95.437,540.631,538.802,0.0
53150.0,STARLINK-4038,PAYLOAD,2023-03-05 16:43:09,15.08856874,0.0001218,53.2176,62.1761,101.1996,258.9133,0.0017208,0.00027217,0.0,0 STARLINK-4038,1 53150U 22083U   23064.69663550  .00027217  00000-0  17208-2 0  9993,2 53150  53.2176  62.1761 0001218 101.1996 258.9133 15.08856874 35924,6917.829,95.436,540.536,538.851,0.0
53150.0,STARLINK-4038,PAYLOAD,2023-03-06 08:37:00,15.08863555,0.0001436,53.2176,59.2033,108.2116,251.9033,0.0023963,0.0003808,0.0,0 STARLINK-4038,1 53150U 22083U   23065.35903559  .00038080  00000-0  23963-2 0  9998,2 53150  53.2176  59.2033 0001436 108.2116 251.9033 15.08863555 36025,6917.808,95.436,540.667,538.68,0.0
53150.0,STARLINK-4038,PAYLOAD,2023-03-06 16:33:56,15.0883247,0.0002305,53.218,57.7161,86.2532,273.8723,7.9468e-05,9.76e-06,0.0,0 STARLINK-4038,1 53150U 22083U   23065.69024268  .00000976  00000-0  79468-4 0  9992,2 53150  53.2180  57.7161 0002305  86.2532 273.8723 15.08832470 36074,6917.903,95.438,541.363,538.174,0.0
53150.0,STARLINK-4038,PAYLOAD,2023-03-07 08:27:48,15.08846152,0.0001208,53.2179,54.7446,87.4677,272.6454,0.0019668,0.00031158,0.0,0 STARLINK-4038,1 53150U 22083U   23066.35264272  .00031158  00000-0  19668-2 0  9997,2 53150  53.2179  54.7446 0001208  87.4677 272.6454 15.08846152 36170,6917.862,95.437,540.562,538.891,0.0
53150.0,STARLINK-4038,PAYLOAD,2023-03-07 22:46:16,15.0884666,0.0001086,53.2186,52.0656,90.7727,269.3389,0.0014934,0.00023564,0.0,0 STARLINK-4038,1 53150U 22083U   23066.94880705  .00023564  00000-0  14934-2 0  9990,2 53150  53.2186  52.0656 0001086  90.7727 269.3389 15.08846660 35633,6917.86,95.437,540.476,538.974,0.0
53150.0,STARLINK-4038,PAYLOAD,2023-03-08 16:15:31,15.08872175,0.0001272,53.2186,48.7952,95.3878,264.7259,0.0021612,0.00034306,0.0,0 STARLINK-4038,1 53150U 22083U   23067.67744225  .00034306  00000-0  21612-2 0  9994,2 53150  53.2186  48.7952 0001272  95.3878 264.7259 15.08872175 36376,6917.782,95.436,540.527,538.767,0.0
53150.0,STARLINK-4038,PAYLOAD,2023-03-08 22:37:03,15.08874146,0.0002028,53.2193,47.6066,91.4445,268.678,0.0022347,0.0003549,0.0,0 STARLINK-4038,1 53150U 22083U   23067.94240365  .00035490  00000-0  22347-2 0  9991,2 53150  53.2193  47.6066 0002028  91.4445 268.6780 15.08874146 35781,6917.776,95.435,541.044,538.238,0.0
53150.0,STARLINK-4038,PAYLOAD,2023-03-09 01:47:49,15.08873914,0.0001722,53.2183,47.0095,112.9584,247.159,0.00244,0.00038795,0.0,0 STARLINK-4038,1 53150U 22083U   23068.07488115  .00038795  00000-0  24400-2 0  9996,2 53150  53.2183  47.0095 0001722 112.9584 247.1590 15.08873914 36435,6917.777,95.435,540.833,538.45,0.0
53150.0,STARLINK-4038,PAYLOAD,2023-03-09 08:09:21,15.08868985,0.0001527,53.2193,45.82,109.9437,250.172,0.0011305,0.00017764,0.0,0 STARLINK-4038,1 53150U 22083U   23068.33983710  .00017764  00000-0  11305-2 0  9999,2 53150  53.2193  45.8200 0001527 109.9437 250.1720 15.08868985 36471,6917.792,95.436,540.713,538.6,0.0
